#aV2011  9 18  0  0   .00000000      96 DD+AD WGS84 FIT  NGA
## 1654       .00000000   900.00000000 55822  .0000000000000
+   32     1  2  3  4  5  6  7  8  9 10 11 12 13 14 15 16 17
+         18 19 20 21 22 23 24 25 26 27 28 29 30 31 32  0  0
+          0  0  0  0  0  0  0  0  0  0  0  0  0  0  0  0  0
+          0  0  0  0  0  0  0  0  0  0  0  0  0  0  0  0  0
+          0  0  0  0  0  0  0  0  0  0  0  0  0  0  0  0  0
++         0  0  0  0  0  0  0  0  0  0  0  0  0  0  0  0  0
++         0  0  0  0  0  0  0  0  0  0  0  0  0  0  0  0  0
++         0  0  0  0  0  0  0  0  0  0  0  0  0  0  0  0  0
++         0  0  0  0  0  0  0  0  0  0  0  0  0  0  0  0  0
++         0  0  0  0  0  0  0  0  0  0  0  0  0  0  0  0  0
%c cc cc ccc ccc cccc cccc cccc cccc ccccc ccccc ccccc ccccc
%c cc cc ccc ccc cccc cccc cccc cccc ccccc ccccc ccccc ccccc
%f  0.0000000  0.000000000  0.00000000000  0.000000000000000
%f  0.0000000  0.000000000  0.00000000000  0.000000000000000
%i    0    0    0    0      0      0      0      0         0
%i    0    0    0    0      0      0      0      0         0
/*      NGA, ST. LOUIS,MO.                                  
/*   EPHEMERIS COMPUTED FROM  3 DAYS OF DATA                
/* CCCCCCCCCCCCCCCCCCCCCCCCCCCCCCCCCCCCCCCCCCCCCCCCCCCCCCCCC
/* CCCCCCCCCCCCCCCCCCCCCCCCCCCCCCCCCCCCCCCCCCCCCCCCCCCCCCCCC
*  2011  9 18  9  0   .00000000                                                 
P  1 -20042.454592  -8775.124682  15046.605133     -3.013649                    
V  1 -10053.551485 -16397.674124 -22941.712068      -.014193                    
P  2  13853.528249  22606.390297   4162.584660    356.653641                    
V  2  -5535.222058  -2192.263559  30368.177324       .018853                    
P  3 -10766.719105 -13278.888057 -20830.673847    769.843639                    
V  3  24501.576641  -7161.279356  -7973.241784       .049706                    
P  4   1209.572379  20914.487666  15902.213997    234.742035                    
V  4 -14644.252922 -15009.250451  20904.422591       .112041                    
P  5   5428.855485  19193.427910 -17494.671819   -219.840422                    
V  5 -10336.800591  19799.968956  18639.975113      -.052430                    
P  6  -5500.377952 -14854.731606 -21197.787342    -68.097467                    
V  6  26833.193578  -5124.943100  -3100.731491       .089824                    
P  7 -14292.552976   5434.392557 -21730.705076     27.329991                    
V  7 -16179.128177 -22293.967405   4830.104085       .018814                    
P  8  -7792.882204  13527.805496 -21334.165092      9.185914                    
V  8 -15065.217612 -22682.826684  -9416.744341       .001052                    
P  9  19831.627560  12761.510942  11643.202424    106.298809                    
V  9   8116.961096  13485.532731 -27349.121095       .023129                    
P 10  -8477.887815  24760.829726  -3290.844668    -13.514359                    
V 10  -4818.153677   2189.769675  31343.082901      -.011743                    
P 11 -23204.379579 -11314.346785   6597.521894   -186.939407                    
V 11  -4158.144049  -9046.570671 -28287.102387      -.033858                    
P 12  15352.595258   1425.076712  21612.007155     23.085974                    
V 12 -10655.991035  25250.954247   6073.671624       .023986                    
P 13 -25744.644731   4429.361124  -5185.169259    250.955727                    
V 13  -6441.035492  -1543.566980  31407.633655      -.018475                    
P 14  11302.979756 -13932.169926  19706.703518    172.760688                    
V 14  24657.103356   -558.699224 -14811.616665       .018428                    
P 15  22971.137892   5574.239050 -12276.038383   -105.841768                    
V 15 -15042.586013   4724.565279 -25807.489662       .015359                    
P 16  -5825.959958 -17630.613463 -18863.670814   -198.410268                    
V 16  11364.887021 -21221.299234  16606.050996      -.021597                    
P 17 -10724.879383  14629.554536  19461.754308    174.671733                    
V 17 -24502.618842    909.147907 -14521.630271      -.016138                    
P 18  16501.785784 -17131.185780 -11087.636632    157.886307                    
V 18  -2679.093446  14963.372095 -26680.930449       .018766                    
P 19 -20816.740513  -9081.857119 -14089.571419   -185.057499                    
V 19  17621.620617  -2622.488213 -24028.048188      -.040091                    
P 20 -16570.623857    631.740226  20591.933412     53.113770                    
V 20   8452.388367 -25238.760226   7588.175325       .005274                    
P 21  12745.538235  -9048.402744 -21041.607043   -172.219708                    
V 21  16823.567507  22201.282719     32.626213      -.025137                    
P 22   9986.303845 -24529.144714   1073.534865    144.462027                    
V 22   4033.566111    514.474882 -31076.287501      -.000956                    
P 23 -26358.858770   -271.881172   4615.086939    275.045816                    
V 23   5470.973642  -3010.746436  30853.258288      -.030619                    
P 24 -19731.616364 -11768.487703  13630.536550    424.856015                    
V 24  -7713.597173 -15483.560110 -24295.572600       .031651                    
P 25  17167.594509 -11065.500571  16934.439431     19.270001                    
V 25  -6542.606576  20613.642771  20094.477505       .017804                    
P 26  12949.937228  12746.757601 -20105.194831   -161.046921                    
V 26 -23996.303279   1635.425518 -14486.738575      -.127232                    
P 27  20050.728949  16296.288147   7585.706291    306.418980                    
V 27   4270.808700   7692.386132 -30064.766511       .038745                    
P 28 -12292.744870  23284.360433  -1662.373962     68.452890                    
V 28  -1155.780772  -3605.036194 -32159.361397       .029925                    
P 29  25544.628072  -5416.069286  -4667.725734    240.802536                    
V 29   6226.636131   2244.581537  31072.471859       .032320                    
P 30  14200.386809 -19230.221712  11238.010970     83.851768                    
V 30  -1863.247797  14950.798547  27020.275788      -.055099                    
P 31  -4176.770651 -21937.040994  14413.096048    143.042879                    
V 31  12090.981789  13454.187219  24525.138585       .055074                    
P 32 -12540.260375  -9325.787138  21764.983392   -330.747579                    
V 32  12671.049456 -23853.164032  -2524.473745      -.065532                    
EOF
